{"fetched_at":"2026-03-29T16:36:15Z","count":15609,"tles":[{"name":"STARLINK-4592","line1":"1 53634U 22104AY  26087.54847197  .00000705  00000+0  62399-4 0  9992","line2":"2 53634  53.2163 139.3663 0001101  93.3996 266.7123 15.08839503199071","category":"Starlink"}]}