{
  "norad_id": 53634,
  "name": "STARLINK-4592",
  "history": [
    {
      "epoch": "2026-03-28T13:09:47.978208",
      "apogee_km": 540.5065668927728,
      "perigee_km": 538.9832492966116,
      "latitude_deg": 45.06253379926895,
      "longitude_deg": -43.946690879995,
      "semi_major_axis_km": 6917.881908094692,
      "eccentricity": 0.0001101,
      "inclination_deg": 53.2163,
      "raan_deg": 139.3663,
      "arg_perigee_deg": 93.3996,
      "mean_anomaly_deg": 266.7123,
      "mean_motion_rev_day": 15.08839503
    }
  ]
}